start=new Date('2022-06-01T00:00:00.000Z').valueOf();
sats=[{"GP_ID":"204999674","CLASSIFICATION_TYPE":"U","LAUNCH_DATE":"2021-03-04","TLE_LINE1":"1 47780U 21017BL  22151.49124725 -.00000008  00000-0  18355-4 0  9997","MEAN_MOTION_DOT":"-0.00000008","COUNTRY_CODE":"US","TIME_SYSTEM":"UTC","REV_AT_EPOCH":"6938","MEAN_ANOMALY":"310.0826","DECAY_DATE":null,"MEAN_ELEMENT_THEORY":"SGP4","MEAN_MOTION":"15.06395544","OBJECT_TYPE":"PAYLOAD","OBJECT_NAME":"STARLINK-2213","OBJECT_ID":"2021-017BL","EPHEMERIS_TYPE":"0","TLE_LINE2":"2 47780  53.0525 278.5887 0001731  50.0315 310.0826 15.06395544 69387","ARG_OF_PERICENTER":"50.0315","RA_OF_ASC_NODE":"278.5887","APOAPSIS":"548.426","MEAN_MOTION_DDOT":"0.0000000000000","SEMIMAJOR_AXIS":"6925.362","ELEMENT_SET_NO":"999","CENTER_NAME":"EARTH","REF_FRAME":"TEME","INCLINATION":"53.0525","PERIOD":"95.592","RCS_SIZE":"LARGE","EPOCH":"2022-05-31T11:47:23.762400","NORAD_CAT_ID":"47780","SITE":"AFETR","BSTAR":"0.00001835500000","ECCENTRICITY":"0.00017310","PERIAPSIS":"546.028","FILE":"3473807"},{"LAUNCH_DATE":"2021-03-04","TLE_LINE1":"1 47781U 21017BM  22151.45808240  .00000085  00000-0  24629-4 0  9990","CLASSIFICATION_TYPE":"U","GP_ID":"204999677","COUNTRY_CODE":"US","TIME_SYSTEM":"UTC","MEAN_MOTION_DOT":"0.00000085","MEAN_MOTION":"15.06390996","DECAY_DATE":null,"MEAN_ELEMENT_THEORY":"SGP4","REV_AT_EPOCH":"6936","MEAN_ANOMALY":"292.7771","EPHEMERIS_TYPE":"0","OBJECT_ID":"2021-017BM","OBJECT_NAME":"STARLINK-2223","OBJECT_TYPE":"PAYLOAD","SEMIMAJOR_AXIS":"6925.376","MEAN_MOTION_DDOT":"0.0000000000000","RA_OF_ASC_NODE":"278.7389","APOAPSIS":"548.269","TLE_LINE2":"2 47781  53.0538 278.7389 0001484  67.3375 292.7771 15.06390996 69362","ARG_OF_PERICENTER":"67.3375","INCLINATION":"53.0538","REF_FRAME":"TEME","CENTER_NAME":"EARTH","ELEMENT_SET_NO":"999","SITE":"AFETR","NORAD_CAT_ID":"47781","PERIOD":"95.593","RCS_SIZE":"LARGE","EPOCH":"2022-05-31T10:59:38.319360","FILE":"3473807","PERIAPSIS":"546.213","ECCENTRICITY":"0.00014840","BSTAR":"0.00002462900000"},{"RCS_SIZE":"LARGE","EPOCH":"2022-05-31T17:48:18.946944","PERIOD":"95.592","NORAD_CAT_ID":"47787","SITE":"AFETR","BSTAR":"0.00008390600000","ECCENTRICITY":"0.00016270","PERIAPSIS":"546.095","FILE":"3474327","TLE_LINE2":"2 47787  53.0552 317.4642 0001627  63.6127 296.5029 15.06397325 68562","ARG_OF_PERICENTER":"63.6127","RA_OF_ASC_NODE":"317.4642","APOAPSIS":"548.349","MEAN_MOTION_DDOT":"0.0000000000000","SEMIMAJOR_AXIS":"6925.357","ELEMENT_SET_NO":"999","CENTER_NAME":"EARTH","REF_FRAME":"TEME","INCLINATION":"53.0552","REV_AT_EPOCH":"6856","MEAN_ANOMALY":"296.5029","DECAY_DATE":null,"MEAN_ELEMENT_THEORY":"SGP4","MEAN_MOTION":"15.06397325","OBJECT_NAME":"STARLINK-2257","OBJECT_TYPE":"PAYLOAD","OBJECT_ID":"2021-018A","EPHEMERIS_TYPE":"0","GP_ID":"205036240","CLASSIFICATION_TYPE":"U","TLE_LINE1":"1 47787U 21018A   22151.74188596  .00000968  00000-0  83906-4 0  9997","LAUNCH_DATE":"2021-03-11","MEAN_MOTION_DOT":"0.00000968","COUNTRY_CODE":"US","TIME_SYSTEM":"UTC"},{"OBJECT_TYPE":"PAYLOAD","OBJECT_NAME":"STARLINK-2314","EPHEMERIS_TYPE":"0","OBJECT_ID":"2021-018B","REV_AT_EPOCH":"6893","MEAN_ANOMALY":"306.7699","MEAN_MOTION":"15.06392997","DECAY_DATE":null,"MEAN_ELEMENT_THEORY":"SGP4","COUNTRY_CODE":"US","TIME_SYSTEM":"UTC","MEAN_MOTION_DOT":"0.00002057","CLASSIFICATION_TYPE":"U","GP_ID":"205036241","TLE_LINE1":"1 47788U 21018B   22151.81975115  .00002057  00000-0  15699-3 0  9991","LAUNCH_DATE":"2021-03-11","ECCENTRICITY":"0.00017260","BSTAR":"0.00015699000000","FILE":"3474327","PERIAPSIS":"546.040","RCS_SIZE":"LARGE","PERIOD":"95.593","EPOCH":"2022-05-31T19:40:26.499360","SITE":"AFETR","NORAD_CAT_ID":"47788","CENTER_NAME":"EARTH","ELEMENT_SET_NO":"999","INCLINATION":"53.0548","REF_FRAME":"TEME","RA_OF_ASC_NODE":"292.1256","APOAPSIS":"548.430","TLE_LINE2":"2 47788  53.0548 292.1256 0001726  53.3448 306.7699 15.06392997 68938","ARG_OF_PERICENTER":"53.3448","SEMIMAJOR_AXIS":"6925.370","MEAN_MOTION_DDOT":"0.0000000000000"},{"FILE":"3474499","PERIAPSIS":"546.194","ECCENTRICITY":"0.00015190","BSTAR":"0.00001158100000","SITE":"AFETR","NORAD_CAT_ID":"47789","PERIOD":"95.593","RCS_SIZE":"LARGE","EPOCH":"2022-05-31T16:04:49.796256","INCLINATION":"53.0549","REF_FRAME":"TEME","CENTER_NAME":"EARTH","ELEMENT_SET_NO":"999","MEAN_MOTION_DDOT":"0.0000000000000","SEMIMAJOR_AXIS":"6925.381","RA_OF_ASC_NODE":"297.8037","APOAPSIS":"548.298","TLE_LINE2":"2 47789  53.0549 297.8037 0001519  73.0250 287.0905 15.06389558 68838","ARG_OF_PERICENTER":"73.0250","EPHEMERIS_TYPE":"0","OBJECT_ID":"2021-018C","OBJECT_TYPE":"PAYLOAD","OBJECT_NAME":"STARLINK-2315","MEAN_MOTION":"15.06389558","DECAY_DATE":null,"MEAN_ELEMENT_THEORY":"SGP4","REV_AT_EPOCH":"6883","MEAN_ANOMALY":"287.0905","COUNTRY_CODE":"US","TIME_SYSTEM":"UTC","MEAN_MOTION_DOT":"-0.00000109","TLE_LINE1":"1 47789U 21018C   22151.67002079 -.00000109  00000-0  11581-4 0  9990","LAUNCH_DATE":"2021-03-11","CLASSIFICATION_TYPE":"U","GP_ID":"205040536"},{"DECAY_DATE":null,"MEAN_ELEMENT_THEORY":"SGP4","MEAN_MOTION":"15.06388385","REV_AT_EPOCH":"6899","MEAN_ANOMALY":"295.6479","OBJECT_ID":"2021-018D","EPHEMERIS_TYPE":"0","OBJECT_TYPE":"PAYLOAD","OBJECT_NAME":"STARLINK-2319","LAUNCH_DATE":"2021-03-11","TLE_LINE1":"1 47790U 21018D   22151.77783322  .00000297  00000-0  38821-4 0  9993","GP_ID":"205035832","CLASSIFICATION_TYPE":"U","MEAN_MOTION_DOT":"0.00000297","TIME_SYSTEM":"UTC","COUNTRY_CODE":"US","NORAD_CAT_ID":"47790","SITE":"AFETR","RCS_SIZE":"LARGE","EPOCH":"2022-05-31T18:40:04.790208","PERIOD":"95.593","PERIAPSIS":"546.351","FILE":"3474312","BSTAR":"0.00003882100000","ECCENTRICITY":"0.00012970","MEAN_MOTION_DDOT":"0.0000000000000","SEMIMAJOR_AXIS":"6925.384","ARG_OF_PERICENTER":"64.4643","TLE_LINE2":"2 47790  53.0541 287.3166 0001297  64.4643 295.6479 15.06388385 68997","RA_OF_ASC_NODE":"287.3166","APOAPSIS":"548.147","REF_FRAME":"TEME","INCLINATION":"53.0541","ELEMENT_SET_NO":"999","CENTER_NAME":"EARTH"},{"MEAN_MOTION_DOT":"-0.00000917","COUNTRY_CODE":"US","TIME_SYSTEM":"UTC","LAUNCH_DATE":"2021-03-11","TLE_LINE1":"1 47791U 21018E   22151.46544652 -.00000917  00000-0 -42675-4 0  9994","GP_ID":"204997850","CLASSIFICATION_TYPE":"U","OBJECT_ID":"2021-018E","EPHEMERIS_TYPE":"0","OBJECT_TYPE":"PAYLOAD","OBJECT_NAME":"STARLINK-2322","MEAN_ELEMENT_THEORY":"SGP4","DECAY_DATE":null,"MEAN_MOTION":"15.06396211","REV_AT_EPOCH":"6852","MEAN_ANOMALY":"298.4005","REF_FRAME":"TEME","INCLINATION":"53.0545","ELEMENT_SET_NO":"999","CENTER_NAME":"EARTH","MEAN_MOTION_DDOT":"0.0000000000000","SEMIMAJOR_AXIS":"6925.360","TLE_LINE2":"2 47791  53.0545 318.7067 0001502  61.7135 298.4005 15.06396211 68528","ARG_OF_PERICENTER":"61.7135","APOAPSIS":"548.265","RA_OF_ASC_NODE":"318.7067","PERIAPSIS":"546.185","FILE":"3473734","BSTAR":"-0.00004267500000","ECCENTRICITY":"0.00015020","NORAD_CAT_ID":"47791","SITE":"AFETR","RCS_SIZE":"LARGE","PERIOD":"95.592","EPOCH":"2022-05-31T11:10:14.579328"},{"GP_ID":"205035875","CLASSIFICATION_TYPE":"U","TLE_LINE1":"1 47792U 21018F   22151.67738738  .00000057  00000-0  22712-4 0  9991","LAUNCH_DATE":"2021-03-11","MEAN_MOTION_DOT":"0.00000057","COUNTRY_CODE":"US","TIME_SYSTEM":"UTC","REV_AT_EPOCH":"6883","MEAN_ANOMALY":"301.1569","MEAN_ELEMENT_THEORY":"SGP4","DECAY_DATE":null,"MEAN_MOTION":"15.06391733","OBJECT_TYPE":"PAYLOAD","OBJECT_NAME":"STARLINK-2334","OBJECT_ID":"2021-018F","EPHEMERIS_TYPE":"0","TLE_LINE2":"2 47792  53.0568 297.7616 0001774  58.9594 301.1569 15.06391733 68833","ARG_OF_PERICENTER":"58.9594","APOAPSIS":"548.467","RA_OF_ASC_NODE":"297.7616","MEAN_MOTION_DDOT":"0.0000000000000","SEMIMAJOR_AXIS":"6925.374","ELEMENT_SET_NO":"999","CENTER_NAME":"EARTH","REF_FRAME":"TEME","INCLINATION":"53.0568","RCS_SIZE":"LARGE","EPOCH":"2022-05-31T16:15:26.269632","PERIOD":"95.593","NORAD_CAT_ID":"47792","SITE":"AFETR","BSTAR":"0.00002271200000","ECCENTRICITY":"0.00017740","PERIAPSIS":"546.010","FILE":"3474316"},{"ECCENTRICITY":"0.00017100","BSTAR":"0.00004431800000","FILE":"3473744","PERIAPSIS":"546.078","RCS_SIZE":"LARGE","EPOCH":"2022-05-31T10:14:31.415136","PERIOD":"95.593","SITE":"AFETR","NORAD_CAT_ID":"47793","CENTER_NAME":"EARTH","ELEMENT_SET_NO":"999","INCLINATION":"53.0547","REF_FRAME":"TEME","RA_OF_ASC_NODE":"298.8930","APOAPSIS":"548.446","TLE_LINE2":"2 47793  53.0547 298.8930 0001710  60.9791 299.1369 15.06384190 68792","ARG_OF_PERICENTER":"60.9791","SEMIMAJOR_AXIS":"6925.397","MEAN_MOTION_DDOT":"0.0000000000000","OBJECT_NAME":"STARLINK-2338","OBJECT_TYPE":"PAYLOAD","EPHEMERIS_TYPE":"0","OBJECT_ID":"2021-018G","REV_AT_EPOCH":"6879","MEAN_ANOMALY":"299.1369","MEAN_MOTION":"15.06384190","DECAY_DATE":null,"MEAN_ELEMENT_THEORY":"SGP4","COUNTRY_CODE":"US","TIME_SYSTEM":"UTC","MEAN_MOTION_DOT":"0.00000378","CLASSIFICATION_TYPE":"U","GP_ID":"204998419","LAUNCH_DATE":"2021-03-11","TLE_LINE1":"1 47793U 21018G   22151.42675249  .00000378  00000-0  44318-4 0  9994"},{"GP_ID":"204998896","CLASSIFICATION_TYPE":"U","TLE_LINE1":"1 47794U 21018H   22151.43043042  .00000500  00000-0  52488-4 0  9990","LAUNCH_DATE":"2021-03-11","MEAN_MOTION_DOT":"0.00000500","COUNTRY_CODE":"US","TIME_SYSTEM":"UTC","REV_AT_EPOCH":"6879","MEAN_ANOMALY":"303.8930","MEAN_ELEMENT_THEORY":"SGP4","DECAY_DATE":null,"MEAN_MOTION":"15.06387225","OBJECT_NAME":"STARLINK-2341","OBJECT_TYPE":"PAYLOAD","OBJECT_ID":"2021-018H","EPHEMERIS_TYPE":"0","TLE_LINE2":"2 47794  53.0555 298.8747 0001945  56.2244 303.8930 15.06387225 68798","ARG_OF_PERICENTER":"56.2244","APOAPSIS":"548.600","RA_OF_ASC_NODE":"298.8747","SEMIMAJOR_AXIS":"6925.388","MEAN_MOTION_DDOT":"0.0000000000000","ELEMENT_SET_NO":"999","CENTER_NAME":"EARTH","REF_FRAME":"TEME","INCLINATION":"53.0555","PERIOD":"95.593","RCS_SIZE":"LARGE","EPOCH":"2022-05-31T10:19:49.188288","NORAD_CAT_ID":"47794","SITE":"AFETR","BSTAR":"0.00005248800000","ECCENTRICITY":"0.00019450","PERIAPSIS":"545.906","FILE":"3473747"}];
